NORAD_CAT_ID,OBJECT_NAME,OBJECT_TYPE,EPOCH,MEAN_MOTION,ECCENTRICITY,INCLINATION,RA_OF_ASC_NODE,ARG_OF_PERICENTER,MEAN_ANOMALY,BSTAR,MEAN_MOTION_DOT,MEAN_MOTION_DDOT,TLE_LINE0,TLE_LINE1,TLE_LINE2,SEMIMAJOR_AXIS,PERIOD,APOGEE,PERIGEE,DECAYED
51991.0,STARLINK-3652,PAYLOAD,2022-11-30 19:10:32,15.08839977,0.000209,53.2187,3.2093,39.9568,320.1578,-0.00011744,-2.157e-05,0.0,0 STARLINK-3652,1 51991U 22025AM  22334.79898813 -.00002157  00000-0 -11744-3 0  9990,2 51991  53.2187   3.2093 0002090  39.9568 320.1578 15.08839977 40671,6917.88,95.438,541.191,538.3,0.0
51991.0,STARLINK-3652,PAYLOAD,2022-12-01 03:07:27,15.08842757,0.0002466,53.2186,1.722,36.9399,323.1762,3.1678000000000004e-05,2.16e-06,0.0,0 STARLINK-3652,1 51991U 22025AM  22335.13018486  .00000216  00000-0  31678-4 0  9990,2 51991  53.2186   1.7220 0002466  36.9399 323.1762 15.08842757 41816,6917.871999999999,95.437,541.443,538.031,0.0
51991.0,STARLINK-3652,PAYLOAD,2022-12-01 11:04:23,15.08846548,0.0002568,53.2174,0.2352,33.8617,326.2538,5.5025e-05,5.88e-06,0.0,0 STARLINK-3652,1 51991U 22025AM  22335.46138163  .00000588  00000-0  55025-4 0  9995,2 51991  53.2174   0.2352 0002568  33.8617 326.2538 15.08846548 40776,6917.86,95.437,541.502,537.9490000000002,0.0
51991.0,STARLINK-3652,PAYLOAD,2022-12-01 19:01:19,15.08833035,0.0002573,53.2181,358.7481,38.6018,321.5157,0.0002496,3.686e-05,0.0,0 STARLINK-3652,1 51991U 22025AM  22335.79258504  .00003686  00000-0  24960-3 0  9998,2 51991  53.2181 358.7481 0002573  38.6018 321.5157 15.08833035 40820,6917.901999999999,95.438,541.547,537.987,0.0
51991.0,STARLINK-3652,PAYLOAD,2022-12-02 01:22:51,15.08842132,0.0002496,53.2173,357.5597,32.7206,327.394,0.00010901,1.447e-05,0.0,0 STARLINK-3652,1 51991U 22025AM  22336.05754129  .00001447  00000-0  10901-3 0  9995,2 51991  53.2173 357.5597 0002496  32.7206 327.3940 15.08842132 40860,6917.874,95.437,541.466,538.012,0.0
51991.0,STARLINK-3652,PAYLOAD,2022-12-02 18:52:06,15.08840001,0.0002538,53.2173,354.2876,33.8328,326.2825,0.00011087,1.477e-05,0.0,0 STARLINK-3652,1 51991U 22025AM  22336.78618321  .00001477  00000-0  11087-3 0  9997,2 51991  53.2173 354.2876 0002538  33.8328 326.2825 15.08840001 40973,6917.88,95.438,541.501,537.99,0.0
51991.0,STARLINK-3652,PAYLOAD,2022-12-03 12:21:21,15.08838023,0.0002453,53.2168,351.01800000000014,30.9969,329.1168,-4.9342e-05,-1.074e-05,0.0,0 STARLINK-3652,1 51991U 22025AM  22337.51482865 -.00001074  00000-0 -49342-4 0  9992,2 51991  53.2168 351.0180 0002453  30.9969 329.1168 15.08838023 41081,6917.886,95.438,541.448,538.054,0.0
51991.0,STARLINK-3652,PAYLOAD,2022-12-03 18:42:53,15.08842938,0.0002512,53.2169,349.8286,30.1457,329.968,-2.0374e-05,-6.13e-06,0.0,0 STARLINK-3652,1 51991U 22025AM  22337.77978430 -.00000613  00000-0 -20374-4 0  9990,2 51991  53.2169 349.8286 0002512  30.1457 329.9680 15.08842938 41126,6917.871,95.437,541.474,537.999,0.0
51991.0,STARLINK-3652,PAYLOAD,2022-12-04 01:04:25,15.08844533,0.0002451,53.2176,348.63800000000015,27.8025,332.3098,2.4033e-05,9.4e-07,0.0,0 STARLINK-3652,1 51991U 22025AM  22338.04474047  .00000094  00000-0  24033-4 0  9993,2 51991  53.2176 348.6380 0002451  27.8025 332.3098 15.08844533 42251,6917.8669999999975,95.437,541.427,538.036,0.0
51991.0,STARLINK-3652,PAYLOAD,2022-12-04 12:12:07,15.08838466,0.0002713,53.217,346.5584,26.9199,333.1934,-1.0786e-06,-3.06e-06,0.0,0 STARLINK-3652,1 51991U 22025AM  22338.50842583 -.00000306  00000-0 -10786-5 0  9997,2 51991  53.2170 346.5584 0002713  26.9199 333.1934 15.08838466 41234,6917.885,95.438,541.627,537.873,0.0
51991.0,STARLINK-3652,PAYLOAD,2022-12-05 07:16:45,15.0883809,0.0002506,53.2179,342.9881,27.0554,333.0569,7.7805e-05,9.5e-06,0.0,0 STARLINK-3652,1 51991U 22025AM  22339.30330366  .00000950  00000-0  77805-4 0  9994,2 51991  53.2179 342.9881 0002506  27.0554 333.0569 15.08838090 41359,6917.886,95.438,541.485,538.018,0.0
51991.0,STARLINK-3652,PAYLOAD,2022-12-05 16:49:04,15.08840393,0.0002542,53.2178,341.2038,28.5434,331.5697,0.00010074,1.315e-05,0.0,0 STARLINK-3652,1 51991U 22025AM  22339.70074182  .00001315  00000-0  10074-3 0  9999,2 51991  53.2178 341.2038 0002542  28.5434 331.5697 15.08840393 42509,6917.879,95.438,541.503,537.986,0.0
51991.0,STARLINK-3652,PAYLOAD,2022-12-06 07:07:32,15.08843312,0.0002542,53.2178,338.5291,30.9382,329.176,3.696e-05,3e-06,0.0,0 STARLINK-3652,1 51991U 22025AM  22340.29690122  .00000300  00000-0  36960-4 0  9999,2 51991  53.2178 338.5291 0002542  30.9382 329.1760 15.08843312 41505,6917.87,95.437,541.494,537.977,0.0
51991.0,STARLINK-3652,PAYLOAD,2022-12-07 00:36:47,15.08836541,0.000261,53.2176,335.2585,28.5906,331.5228,-7.4721e-06,-4.07e-06,0.0,0 STARLINK-3652,1 51991U 22025AM  22341.02554769 -.00000407  00000-0 -74721-5 0  9995,2 51991  53.2176 335.2585 0002610  28.5906 331.5228 15.08836541 42709,6917.891,95.438,541.562,537.95,0.0
51991.0,STARLINK-3652,PAYLOAD,2022-12-07 16:30:38,15.08837599,0.0001815,53.2181,332.2828,9.7752,350.3275,7.4485e-06,-1.7e-06,0.0,0 STARLINK-3652,1 51991U 22025AM  22341.68794463 -.00000170  00000-0  74485-5 0  9997,2 51991  53.2181 332.2828 0001815   9.7752 350.3275 15.08837599 41713,6917.888000000001,95.438,541.008,538.497,0.0
51991.0,STARLINK-3652,PAYLOAD,2022-12-08 00:27:33,15.08848483,0.0002371,53.2179,330.7959,31.5351,328.5783,0.00010351,1.36e-05,0.0,0 STARLINK-3652,1 51991U 22025AM  22342.01913935  .00001360  00000-0  10351-3 0  9993,2 51991  53.2179 330.7959 0002371  31.5351 328.5783 15.08848483 42855,6917.854,95.437,541.36,538.0790000000002,0.0
51991.0,STARLINK-3652,PAYLOAD,2022-12-08 05:13:43,15.08842176,0.0002309,53.2173,329.904,33.3872,326.7265,8.5238e-05,1.069e-05,0.0,0 STARLINK-3652,1 51991U 22025AM  22342.21786307  .00001069  00000-0  85238-4 0  9999,2 51991  53.2173 329.9040 0002309  33.3872 326.7265 15.08842176 41799,6917.874,95.437,541.336,538.141,0.0
51991.0,STARLINK-3652,PAYLOAD,2022-12-08 06:49:06,15.08840555,0.0002461,53.2176,329.6059,28.2554,331.8571,8.408399999999999e-05,1.05e-05,0.0,0 STARLINK-3652,1 51991U 22025AM  22342.28410416  .00001050  00000-0  84084-4 0  9999,2 51991  53.2176 329.6059 0002461  28.2554 331.8571 15.08840555 42896,6917.879,95.438,541.446,538.0409999999998,0.0
51991.0,STARLINK-3652,PAYLOAD,2022-12-08 16:21:24,15.08845265,0.0002403,53.2171,327.8237,25.6651,334.446,0.00014725,2.056e-05,0.0,0 STARLINK-3652,1 51991U 22025AM  22342.68153869  .00002056  00000-0  14725-3 0  9990,2 51991  53.2171 327.8237 0002403  25.6651 334.4460 15.08845265 41869,6917.864000000001,95.437,541.3919999999998,538.067,0.0
51991.0,STARLINK-3652,PAYLOAD,2022-12-09 05:04:16,15.09046104,0.0001771,53.2172,325.447,18.5852,341.5205,0.0014278,0.00022637,0.0,0 STARLINK-3652,1 51991U 22025AM  22343.21129792  .00022637  00000-0  14278-2 0  9997,2 51991  53.2172 325.4470 0001771  18.5852 341.5205 15.09046104 41945,6917.25,95.425,540.341,537.89,0.0
51991.0,STARLINK-3652,PAYLOAD,2022-12-09 16:12:12,15.08831901,0.0002214,53.2164,323.366,340.8762,19.2146,9.0848e-05,1.158e-05,0.0,0 STARLINK-3652,1 51991U 22025AM  22343.67514110  .00001158  00000-0  90848-4 0  9993,2 51991  53.2164 323.3660 0002214 340.8762  19.2146 15.08831901 43107,6917.905,95.438,541.302,538.239,0.0
51991.0,STARLINK-3652,PAYLOAD,2022-12-10 08:06:05,15.08823313,0.0002516,53.2173,320.3874,28.2439,331.8689,-9.9052e-05,-1.864e-05,0.0,0 STARLINK-3652,1 51991U 22025AM  22344.33756469 -.00001864  00000-0 -99052-4 0  9994,2 51991  53.2173 320.3874 0002516  28.2439 331.8689 15.08823313 43208,6917.931,95.439,541.5369999999998,538.056,0.0
51991.0,STARLINK-3652,PAYLOAD,2022-12-11 03:10:42,15.08833511,0.0002528,53.2175,316.8228,339.6831,20.406,0.0001240999999999,1.687e-05,0.0,0 STARLINK-3652,1 51991U 22025AM  22345.13243121  .00001687  00000-0  12410-3 0  9992,2 51991  53.2175 316.8228 0002528 339.6831  20.4060 15.08833511 43329,6917.9,95.438,541.514,538.016,0.0
51991.0,STARLINK-3652,PAYLOAD,2022-12-11 04:46:05,15.08845295,0.0003105,53.2174,316.5241,24.6084,335.5056,4.9212e-05,4.95e-06,0.0,0 STARLINK-3652,1 51991U 22025AM  22345.19867188  .00000495  00000-0  49212-4 0  9990,2 51991  53.2174 316.5241 0003105  24.6084 335.5056 15.08845295 42240,6917.864000000001,95.437,541.877,537.581,0.0
51991.0,STARLINK-3652,PAYLOAD,2022-12-12 07:47:38,15.08843457,0.0002201,53.2171,311.4668,33.4786,326.6345,0.00026753,3.973e-05,0.0,0 STARLINK-3652,1 51991U 22025AM  22346.32475493  .00003973  00000-0  26753-3 0  9998,2 51991  53.2171 311.4668 0002201  33.4786 326.6345 15.08843457 43507,6917.87,95.437,541.257,538.212,0.0
51991.0,STARLINK-3652,PAYLOAD,2022-12-13 07:38:25,15.08844749,0.0002525,53.2165,307.0076,29.6506,330.4629,-1.6855e-05,-5.57e-06,0.0,0 STARLINK-3652,1 51991U 22025AM  22347.31834996 -.00000557  00000-0 -16855-4 0  9995,2 51991  53.2165 307.0076 0002525  29.6506 330.4629 15.08844749 42568,6917.866,95.437,541.4780000000002,537.984,0.0
51991.0,STARLINK-3652,PAYLOAD,2022-12-13 13:59:57,15.08849409,0.0002439,53.2165,305.8187,32.8796,327.2347,-3.2291e-05,-8.02e-06,0.0,0 STARLINK-3652,1 51991U 22025AM  22347.58330554 -.00000802  00000-0 -32291-4 0  9990,2 51991  53.2165 305.8187 0002439  32.8796 327.2347 15.08849409 43692,6917.852,95.437,541.404,538.029,0.0
51991.0,STARLINK-3652,PAYLOAD,2022-12-14 01:07:40,15.08834665,0.0002419,53.2164,303.7381,31.6853,328.4284,-2.9388e-06,-3.35e-06,0.0,0 STARLINK-3652,1 51991U 22025AM  22348.04699253 -.00000335  00000-0 -29388-5 0  9991,2 51991  53.2164 303.7381 0002419  31.6853 328.4284 15.08834665 43762,6917.897,95.438,541.435,538.0880000000002,0.0
51991.0,STARLINK-3652,PAYLOAD,2022-12-14 04:18:26,15.08831061,0.0002377,53.2167,303.143,32.7596,327.3543,-0.00011004,-2.039e-05,0.0,0 STARLINK-3652,1 51991U 22025AM  22348.17947466 -.00002039  00000-0 -11004-3 0  9994,2 51991  53.2167 303.1430 0002377  32.7596 327.3543 15.08831061 42697,6917.908,95.438,541.4169999999998,538.128,0.0
